NORAD_CAT_ID,OBJECT_NAME,OBJECT_TYPE,EPOCH,MEAN_MOTION,ECCENTRICITY,INCLINATION,RA_OF_ASC_NODE,ARG_OF_PERICENTER,MEAN_ANOMALY,BSTAR,MEAN_MOTION_DOT,MEAN_MOTION_DDOT,TLE_LINE0,TLE_LINE1,TLE_LINE2,SEMIMAJOR_AXIS,PERIOD,APOGEE,PERIGEE,DECAYED
51873.0,STARLINK-3582,PAYLOAD,2024-03-25 22:24:40,15.08836409,0.0001672,53.2172,333.3029,109.3534,250.7639,-9.2762e-05,-1.764e-05,0.0,0 STARLINK-3582,1 51873U 22022X   24085.93380170 -.00001764  00000-0 -92762-4 0  9992,2 51873  53.2172 333.3029 0001672 109.3534 250.7639 15.08836409115362,6917.891,95.438,540.913,538.6,0.0
51873.0,STARLINK-3582,PAYLOAD,2024-03-26 00:00:03,15.08833723,0.0001572,53.2166,333.0058,109.4429,250.6733,-0.0001147,-2.113e-05,0.0,0 STARLINK-3582,1 51873U 22022X   24086.00004311 -.00002113  00000-0 -11470-3 0  9996,2 51873  53.2166 333.0058 0001572 109.4429 250.6733 15.08833723115378,6917.9,95.438,540.852,538.677,0.0
51873.0,STARLINK-3582,PAYLOAD,2024-03-26 22:15:28,15.0883385,0.0001599,53.2165,328.8429,100.6847,259.4326,0.00039789,6.049e-05,0.0,0 STARLINK-3582,1 51873U 22022X   24086.92741244  .00006049  00000-0  39789-3 0  9993,2 51873  53.2165 328.8429 0001599 100.6847 259.4326 15.08833850115519,6917.899,95.438,540.87,538.658,0.0
51873.0,STARLINK-3582,PAYLOAD,2024-03-27 09:23:09,15.08850024,0.0001762,53.2159,326.763,96.5749,263.5444,0.00044231,6.76e-05,0.0,0 STARLINK-3582,1 51873U 22022X   24087.39108637  .00006760  00000-0  44231-3 0  9996,2 51873  53.2159 326.7630 0001762  96.5749 263.5444 15.08850024115585,6917.85,95.437,540.934,538.496,0.0
51873.0,STARLINK-3582,PAYLOAD,2024-03-27 20:30:53,15.08820309,0.000166,53.2163,324.6836,93.7775,266.3407,-0.00011541,-2.123e-05,0.0,0 STARLINK-3582,1 51873U 22022X   24087.85478141 -.00002123  00000-0 -11541-3 0  9996,2 51873  53.2163 324.6836 0001660  93.7775 266.3407 15.08820309115651,6917.941,95.439,540.954,538.657,0.0
51873.0,STARLINK-3582,PAYLOAD,2024-03-27 22:06:16,15.08821839,0.0001556,53.2158,324.3856,97.5,262.6169,-0.00017508,-3.072e-05,0.0,0 STARLINK-3582,1 51873U 22022X   24087.92101958 -.00003072  00000-0 -17508-3 0  9996,2 51873  53.2158 324.3856 0001556  97.5000 262.6169 15.08821839115665,6917.936,95.439,540.877,538.724,0.0
51873.0,STARLINK-3582,PAYLOAD,2024-03-28 09:13:58,15.0883476,0.000178,53.2164,322.3025,103.5352,256.5839,0.00018134,2.599e-05,0.0,0 STARLINK-3582,1 51873U 22022X   24088.38469958  .00002599  00000-0  18134-3 0  9991,2 51873  53.2164 322.3025 0001780 103.5352 256.5839 15.08834760115736,6917.896,95.438,540.993,538.53,0.0
51873.0,STARLINK-3582,PAYLOAD,2024-03-28 21:57:02,15.08853923,0.0001159,53.2175,319.9255,88.8199,271.2926,0.00083682,0.0001306,0.0,0 STARLINK-3582,1 51873U 22022X   24088.91461581  .00013060  00000-0  83682-3 0  9999,2 51873  53.2175 319.9255 0001159  88.8199 271.2926 15.08853923115811,6917.838,95.437,540.505,538.901,0.0
51873.0,STARLINK-3582,PAYLOAD,2024-03-29 01:07:48,15.08870994,0.0001465,53.2165,319.3299,98.2695,261.8463,0.0014275,0.00022523,0.0,0 STARLINK-3582,1 51873U 22022X   24089.04709318  .00022523  00000-0  14275-2 0  9992,2 51873  53.2165 319.3299 0001465  98.2695 261.8463 15.08870994115838,6917.786,95.436,540.664,538.637,0.0
51873.0,STARLINK-3582,PAYLOAD,2024-03-29 21:47:48,15.08878122,0.0001168,53.2165,315.4644,102.736,257.3763,0.0010339,0.00016222,0.0,0 STARLINK-3582,1 51873U 22022X   24089.90820159  .00016222  00000-0  10339-2 0  9990,2 51873  53.2165 315.4644 0001168 102.7360 257.3763 15.08878122115967,6917.764,95.435,540.437,538.821,0.0
51873.0,STARLINK-3582,PAYLOAD,2024-03-30 00:58:34,15.08877694,0.0001438,53.2173,314.8712,68.1093,292.0052,0.0014844,0.0002344,0.0,0 STARLINK-3582,1 51873U 22022X   24090.04068229  .00023440  00000-0  14844-2 0  9994,2 51873  53.2173 314.8712 0001438  68.1093 292.0052 15.08877694115985,6917.765,95.435,540.625,538.635,0.0
51873.0,STARLINK-3582,PAYLOAD,2024-03-30 21:38:35,15.08855671,0.0001259,53.2178,311.0012,95.2305,264.8831,0.0017164,0.00027146,0.0,0 STARLINK-3582,1 51873U 22022X   24090.90180343  .00027146  00000-0  17164-2 0  9996,2 51873  53.2178 311.0012 0001259  95.2305 264.8831 15.08855671116119,6917.832,95.437,540.568,538.827,0.0
51873.0,STARLINK-3582,PAYLOAD,2024-03-31 00:49:22,15.08853906,0.000137,53.2168,310.411,76.8869,283.2276,0.0015718,0.00024825,0.0,0 STARLINK-3582,1 51873U 22022X   24091.03428435  .00024825  00000-0  15718-2 0  9992,2 51873  53.2168 310.4110 0001370  76.8869 283.2276 15.08853906116133,6917.838,95.437,540.651,538.755,0.0
51873.0,STARLINK-3582,PAYLOAD,2024-03-31 15:07:50,15.08848568,0.0001706,53.2171,307.7325,71.5334,288.5844,0.00042132,6.425e-05,0.0,0 STARLINK-3582,1 51873U 22022X   24091.63044295  .00006425  00000-0  42132-3 0  9993,2 51873  53.2171 307.7325 0001706  71.5334 288.5844 15.08848568116223,6917.854,95.437,540.899,538.539,0.0
51873.0,STARLINK-3582,PAYLOAD,2024-03-31 21:29:22,15.08850444,0.0001107,53.2161,306.5433,90.0954,270.0165,0.00016365,2.318e-05,0.0,0 STARLINK-3582,1 51873U 22022X   24091.89539845  .00002318  00000-0  16365-3 0  9997,2 51873  53.2161 306.5433 0001107  90.0954 270.0165 15.08850444116260,6917.848,95.437,540.479,538.948,0.0
51873.0,STARLINK-3582,PAYLOAD,2024-04-01 13:23:14,15.08845807,0.000217,53.2162,303.57,79.4197,280.704,0.00017739,2.537e-05,0.0,0 STARLINK-3582,1 51873U 22022X   24092.55780132  .00002537  00000-0  17739-3 0  9997,2 51873  53.2162 303.5700 0002170  79.4197 280.7040 15.08845807116364,6917.863,95.437,541.229,538.226,0.0
51873.0,STARLINK-3582,PAYLOAD,2024-04-01 21:20:09,15.0883416,0.0001191,53.2164,302.0838,85.9147,274.1981,-6.5258e-05,-1.326e-05,0.0,0 STARLINK-3582,1 51873U 22022X   24092.88900324 -.00001326  00000-0 -65258-4 0  9997,2 51873  53.2164 302.0838 0001191  85.9147 274.1981 15.08834160116418,6917.898,95.438,540.587,538.939,0.0
51873.0,STARLINK-3582,PAYLOAD,2024-04-02 06:52:28,15.0883738,0.0001205,53.2162,300.2993,80.7282,279.3846,0.00015637,2.201e-05,0.0,0 STARLINK-3582,1 51873U 22022X   24093.28644365  .00002201  00000-0  15637-3 0  9998,2 51873  53.2162 300.2993 0001205  80.7282 279.3846 15.08837380116477,6917.888,95.438,540.587,538.92,0.0
51873.0,STARLINK-3582,PAYLOAD,2024-04-02 22:46:20,15.0883673,0.0001325,53.2164,297.3262,77.9259,282.1882,0.00040299,6.131e-05,0.0,0 STARLINK-3582,1 51873U 22022X   24093.94884935  .00006131  00000-0  40299-3 0  9998,2 51873  53.2164 297.3262 0001325  77.9259 282.1882 15.08836730116570,6917.89,95.438,540.672,538.839,0.0
51873.0,STARLINK-3582,PAYLOAD,2024-04-03 06:43:16,15.0884325,0.0001342,53.2167,295.8396,77.748,282.3662,0.00044741,6.84e-05,0.0,0 STARLINK-3582,1 51873U 22022X   24094.28004836  .00006840  00000-0  44741-3 0  9993,2 51873  53.2167 295.8396 0001342  77.7480 282.3662 15.08843250116626,6917.87,95.437,540.664,538.807,0.0
51873.0,STARLINK-3582,PAYLOAD,2024-04-03 19:26:21,15.08840348,0.0001359,53.2164,293.4608,79.0508,281.0636,0.00024273,3.577e-05,0.0,0 STARLINK-3582,1 51873U 22022X   24094.80996994  .00003577  00000-0  24273-3 0  9998,2 51873  53.2164 293.4608 0001359  79.0508 281.0636 15.08840348116708,6917.879,95.438,540.684,538.804,0.0
51873.0,STARLINK-3582,PAYLOAD,2024-04-04 06:34:03,15.08846906,0.0001372,53.2163,291.3793,78.6355,281.4792,0.0003125,4.69e-05,0.0,0 STARLINK-3582,1 51873U 22022X   24095.27364778  .00004690  00000-0  31250-3 0  9999,2 51873  53.2163 291.3793 0001372  78.6355 281.4792 15.08846906116779,6917.859,95.437,540.673,538.775,0.0
51873.0,STARLINK-3582,PAYLOAD,2024-04-04 19:17:07,15.08861898,0.0001031,53.2142,288.9994,81.0833,279.0276,0.00051906,7.988e-05,0.0,0 STARLINK-3582,1 51873U 22022X   24095.80355862  .00007988  00000-0  51906-3 0  9995,2 51873  53.2142 288.9994 0001031  81.0833 279.0276 15.08861898116858,6917.813,95.436,540.392,538.965,0.0
51873.0,STARLINK-3582,PAYLOAD,2024-04-04 22:27:53,15.08865196,0.0001058,53.2148,288.4022,89.511,270.6003,0.00055988,8.64e-05,0.0,0 STARLINK-3582,1 51873U 22022X   24095.93603587  .00008640  00000-0  55988-3 0  9999,2 51873  53.2148 288.4022 0001058  89.5110 270.6003 15.08865196116873,6917.803,95.436,540.4,538.936,0.0
51873.0,STARLINK-3582,PAYLOAD,2024-04-05 12:46:21,15.08864986,0.0002875,53.2138,285.7272,86.0631,274.069,0.00047634,7.306e-05,0.0,0 STARLINK-3582,1 51873U 22022X   24096.53219598  .00007306  00000-0  47634-3 0  9998,2 51873  53.2138 285.7272 0002875  86.0631 274.0690 15.08864986116963,6917.804,95.436,541.658,537.68,0.0
51873.0,STARLINK-3582,PAYLOAD,2024-04-05 19:07:54,15.08839128,0.0001368,53.2143,284.5375,88.082,272.0329,-0.00017395,-3.055e-05,0.0,0 STARLINK-3582,1 51873U 22022X   24096.79715858 -.00003055  00000-0 -17395-3 0  9996,2 51873  53.2143 284.5375 0001368  88.0820 272.0329 15.08839128117001,6917.883,95.438,540.694,538.802,0.0
51873.0,STARLINK-3582,PAYLOAD,2024-04-06 12:37:09,15.08834605,0.0001475,53.2154,281.2662,90.2815,269.8347,0.00078226,0.00012182,0.0,0 STARLINK-3582,1 51873U 22022X   24097.52580653  .00012182  00000-0  78226-3 0  9990,2 51873  53.2154 281.2662 0001475  90.2815 269.8347 15.08834605117115,6917.897,95.438,540.782,538.741,0.0
51873.0,STARLINK-3582,PAYLOAD,2024-04-06 22:09:28,15.0883922,0.0001425,53.2159,279.4825,89.5618,270.5537,0.00059911,9.26e-05,0.0,0 STARLINK-3582,1 51873U 22022X   24097.92324751  .00009260  00000-0  59911-3 0  9992,2 51873  53.2159 279.4825 0001425  89.5618 270.5537 15.08839220117171,6917.883,95.438,540.734,538.762,0.0
51873.0,STARLINK-3582,PAYLOAD,2024-04-07 12:27:57,15.08836382,0.000187,53.2171,276.8071,94.5633,265.5573,0.00021555,3.144e-05,0.0,0 STARLINK-3582,1 51873U 22022X   24098.51941007  .00003144  00000-0  21555-3 0  9995,2 51873  53.2171 276.8071 0001870  94.5633 265.5573 15.08836382117266,6917.891,95.438,541.05,538.463,0.0
51873.0,STARLINK-3582,PAYLOAD,2024-04-07 18:49:29,15.08833937,0.0001697,53.2167,275.6181,94.5143,265.6043,0.00015035,2.105e-05,0.0,0 STARLINK-3582,1 51873U 22022X   24098.78437192  .00002105  00000-0  15035-3 0  9991,2 51873  53.2167 275.6181 0001697  94.5143 265.6043 15.08833937117304,6917.899,95.438,540.938,538.59,0.0
